start=new Date('2023-06-23T00:00:00.000Z').valueOf();
sats=[{"MEAN_ANOMALY":"276.2658","EPOCH":"2023-06-22T13:56:21.224544","CENTER_NAME":"EARTH","TLE_LINE2":"2 46334  53.0534 126.1554 0001316  83.8481 276.2658 15.06391075155384","FILE":"3940036","ECCENTRICITY":"0.00013160","SITE":"AFETR","OBJECT_ID":"2020-062K","MEAN_MOTION":"15.06391075","RCS_SIZE":"LARGE","MEAN_ELEMENT_THEORY":"SGP4","BSTAR":"0.00095194000000","INCLINATION":"53.0534","MEAN_MOTION_DDOT":"0.0000000000000","ARG_OF_PERICENTER":"83.8481","EPHEMERIS_TYPE":"0","OBJECT_TYPE":"PAYLOAD","LAUNCH_DATE":"2020-09-03","OBJECT_NAME":"STARLINK-1725","NORAD_CAT_ID":"46334","MEAN_MOTION_DOT":"0.00013923","APOAPSIS":"548.152","GP_ID":"234460379","REV_AT_EPOCH":"15538","TIME_SYSTEM":"UTC","COUNTRY_CODE":"US","PERIAPSIS":"546.330","TLE_LINE1":"1 46334U 20062K   23173.58080121  .00013923  00000-0  95194-3 0  9990","ELEMENT_SET_NO":"999","DECAY_DATE":null,"REF_FRAME":"TEME","PERIOD":"95.593","RA_OF_ASC_NODE":"126.1554","CLASSIFICATION_TYPE":"U","SEMIMAJOR_AXIS":"6925.376"},{"INCLINATION":"53.0543","BSTAR":"0.00001641700000","MEAN_ELEMENT_THEORY":"SGP4","RCS_SIZE":"LARGE","OBJECT_TYPE":"PAYLOAD","EPHEMERIS_TYPE":"0","MEAN_MOTION_DDOT":"0.0000000000000","ARG_OF_PERICENTER":"87.9271","CENTER_NAME":"EARTH","EPOCH":"2023-06-22T01:51:47.390112","MEAN_ANOMALY":"272.1865","OBJECT_ID":"2020-062L","MEAN_MOTION":"15.06395735","SITE":"AFETR","ECCENTRICITY":"0.00012810","FILE":"3939468","TLE_LINE2":"2 46335  53.0543 148.1357 0001281  87.9271 272.1865 15.06395735155037","CLASSIFICATION_TYPE":"U","RA_OF_ASC_NODE":"148.1357","PERIOD":"95.592","REF_FRAME":"TEME","TLE_LINE1":"1 46335U 20062L   23173.07763183 -.00000037  00000-0  16417-4 0  9996","ELEMENT_SET_NO":"999","DECAY_DATE":null,"SEMIMAJOR_AXIS":"6925.362","OBJECT_NAME":"STARLINK-1727","NORAD_CAT_ID":"46335","LAUNCH_DATE":"2020-09-03","PERIAPSIS":"546.339","TIME_SYSTEM":"UTC","COUNTRY_CODE":"US","REV_AT_EPOCH":"15503","GP_ID":"234446734","APOAPSIS":"548.114","MEAN_MOTION_DOT":"-0.00000037"},{"CENTER_NAME":"EARTH","EPOCH":"2023-06-22T14:22:50.033280","MEAN_ANOMALY":"265.2563","MEAN_MOTION":"15.06400513","OBJECT_ID":"2020-062M","SITE":"AFETR","FILE":"3940037","ECCENTRICITY":"0.00011410","TLE_LINE2":"2 46336  53.0540 125.7988 0001141  94.8556 265.2563 15.06400513155392","INCLINATION":"53.0540","BSTAR":"0.00017990000000","MEAN_ELEMENT_THEORY":"SGP4","RCS_SIZE":"LARGE","EPHEMERIS_TYPE":"0","OBJECT_TYPE":"PAYLOAD","ARG_OF_PERICENTER":"94.8556","MEAN_MOTION_DDOT":"0.0000000000000","OBJECT_NAME":"STARLINK-1738","NORAD_CAT_ID":"46336","LAUNCH_DATE":"2020-09-03","PERIAPSIS":"546.422","COUNTRY_CODE":"US","TIME_SYSTEM":"UTC","REV_AT_EPOCH":"15539","GP_ID":"234460396","APOAPSIS":"548.002","MEAN_MOTION_DOT":"0.00002399","CLASSIFICATION_TYPE":"U","RA_OF_ASC_NODE":"125.7988","PERIOD":"95.592","REF_FRAME":"TEME","ELEMENT_SET_NO":"999","TLE_LINE1":"1 46336U 20062M   23173.59919020  .00002399  00000-0  17990-3 0  9995","DECAY_DATE":null,"SEMIMAJOR_AXIS":"6925.347"},{"FILE":"3939747","ECCENTRICITY":"0.00015890","TLE_LINE2":"2 46337  53.0542 127.2181 0001589  85.1038 275.0133 15.06389102155348","MEAN_MOTION":"15.06389102","OBJECT_ID":"2020-062N","SITE":"AFETR","MEAN_ANOMALY":"275.0133","CENTER_NAME":"EARTH","EPOCH":"2023-06-22T06:46:22.619136","ARG_OF_PERICENTER":"85.1038","MEAN_MOTION_DDOT":"0.0000000000000","EPHEMERIS_TYPE":"0","OBJECT_TYPE":"PAYLOAD","RCS_SIZE":"LARGE","MEAN_ELEMENT_THEORY":"SGP4","INCLINATION":"53.0542","BSTAR":"-0.00003668400000","MEAN_MOTION_DOT":"-0.00000828","APOAPSIS":"548.347","REV_AT_EPOCH":"15534","GP_ID":"234453512","PERIAPSIS":"546.147","COUNTRY_CODE":"US","TIME_SYSTEM":"UTC","OBJECT_NAME":"STARLINK-1750","NORAD_CAT_ID":"46337","LAUNCH_DATE":"2020-09-03","SEMIMAJOR_AXIS":"6925.382","REF_FRAME":"TEME","TLE_LINE1":"1 46337U 20062N   23173.28220624 -.00000828  00000-0 -36684-4 0  9996","DECAY_DATE":null,"ELEMENT_SET_NO":"999","RA_OF_ASC_NODE":"127.2181","PERIOD":"95.593","CLASSIFICATION_TYPE":"U"},{"MEAN_ANOMALY":"270.2479","EPOCH":"2023-06-22T07:58:01.291296","CENTER_NAME":"EARTH","TLE_LINE2":"2 46338  53.0542 146.9943 0001446  89.8675 270.2479 15.06393129155066","ECCENTRICITY":"0.00014460","FILE":"3939747","SITE":"AFETR","OBJECT_ID":"2020-062P","MEAN_MOTION":"15.06393129","RCS_SIZE":"LARGE","MEAN_ELEMENT_THEORY":"SGP4","BSTAR":"-0.00005254000000","INCLINATION":"53.0542","MEAN_MOTION_DDOT":"0.0000000000000","ARG_OF_PERICENTER":"89.8675","OBJECT_TYPE":"PAYLOAD","EPHEMERIS_TYPE":"0","LAUNCH_DATE":"2020-09-03","OBJECT_NAME":"STARLINK-1752","NORAD_CAT_ID":"46338","MEAN_MOTION_DOT":"-0.00001064","APOAPSIS":"548.236","GP_ID":"234454006","REV_AT_EPOCH":"15506","TIME_SYSTEM":"UTC","COUNTRY_CODE":"US","PERIAPSIS":"546.233","TLE_LINE1":"1 46338U 20062P   23173.33195939 -.00001064  00000-0 -52540-4 0  9995","DECAY_DATE":null,"ELEMENT_SET_NO":"999","REF_FRAME":"TEME","PERIOD":"95.593","RA_OF_ASC_NODE":"146.9943","CLASSIFICATION_TYPE":"U","SEMIMAJOR_AXIS":"6925.370"},{"CENTER_NAME":"EARTH","EPOCH":"2023-06-22T15:18:33.774624","MEAN_ANOMALY":"263.5357","OBJECT_ID":"2020-062R","MEAN_MOTION":"15.06401286","SITE":"AFETR","FILE":"3940066","ECCENTRICITY":"0.00011730","TLE_LINE2":"2 46340  53.0541 145.6309 0001173  96.5765 263.5357 15.06401286155112","INCLINATION":"53.0541","BSTAR":"0.00004937200000","MEAN_ELEMENT_THEORY":"SGP4","RCS_SIZE":"LARGE","OBJECT_TYPE":"PAYLOAD","EPHEMERIS_TYPE":"0","ARG_OF_PERICENTER":"96.5765","MEAN_MOTION_DDOT":"0.0000000000000","NORAD_CAT_ID":"46340","OBJECT_NAME":"STARLINK-1759","LAUNCH_DATE":"2020-09-03","PERIAPSIS":"546.397","COUNTRY_CODE":"US","TIME_SYSTEM":"UTC","REV_AT_EPOCH":"15511","GP_ID":"234460408","APOAPSIS":"548.022","MEAN_MOTION_DOT":"0.00000454","CLASSIFICATION_TYPE":"U","RA_OF_ASC_NODE":"145.6309","PERIOD":"95.592","REF_FRAME":"TEME","TLE_LINE1":"1 46340U 20062R   23173.63789091  .00000454  00000-0  49372-4 0  9998","DECAY_DATE":null,"ELEMENT_SET_NO":"999","SEMIMAJOR_AXIS":"6925.345"},{"MEAN_MOTION":"15.06401957","OBJECT_ID":"2020-062S","SITE":"AFETR","FILE":"3940066","ECCENTRICITY":"0.00013790","TLE_LINE2":"2 46341  53.0547 125.8923 0001379  94.3136 265.8011 15.06401957155394","CENTER_NAME":"EARTH","EPOCH":"2023-06-22T13:50:59.315424","MEAN_ANOMALY":"265.8011","OBJECT_TYPE":"PAYLOAD","EPHEMERIS_TYPE":"0","ARG_OF_PERICENTER":"94.3136","MEAN_MOTION_DDOT":"0.0000000000000","INCLINATION":"53.0547","BSTAR":"0.00016489000000","MEAN_ELEMENT_THEORY":"SGP4","RCS_SIZE":"LARGE","PERIAPSIS":"546.253","COUNTRY_CODE":"US","TIME_SYSTEM":"UTC","REV_AT_EPOCH":"15539","GP_ID":"234460899","APOAPSIS":"548.163","MEAN_MOTION_DOT":"0.00002176","OBJECT_NAME":"STARLINK-1760","NORAD_CAT_ID":"46341","LAUNCH_DATE":"2020-09-03","SEMIMAJOR_AXIS":"6925.343","CLASSIFICATION_TYPE":"U","RA_OF_ASC_NODE":"125.8923","PERIOD":"95.592","REF_FRAME":"TEME","TLE_LINE1":"1 46341U 20062S   23173.57707541  .00002176  00000-0  16489-3 0  9997","ELEMENT_SET_NO":"999","DECAY_DATE":null},{"PERIOD":"95.592","RA_OF_ASC_NODE":"148.0710","DECAY_DATE":null,"TLE_LINE1":"1 46342U 20062T   23173.09237230 -.00002572  00000-0 -15382-3 0  9991","ELEMENT_SET_NO":"999","REF_FRAME":"TEME","CLASSIFICATION_TYPE":"U","SEMIMAJOR_AXIS":"6925.364","LAUNCH_DATE":"2020-09-03","OBJECT_NAME":"STARLINK-1762","NORAD_CAT_ID":"46342","APOAPSIS":"548.413","MEAN_MOTION_DOT":"-0.00002572","COUNTRY_CODE":"US","TIME_SYSTEM":"UTC","PERIAPSIS":"546.046","GP_ID":"234445580","REV_AT_EPOCH":"15503","RCS_SIZE":"LARGE","BSTAR":"-0.00015382000000","INCLINATION":"53.0535","MEAN_ELEMENT_THEORY":"SGP4","MEAN_MOTION_DDOT":"0.0000000000000","ARG_OF_PERICENTER":"109.7275","OBJECT_TYPE":"PAYLOAD","EPHEMERIS_TYPE":"0","MEAN_ANOMALY":"250.3898","EPOCH":"2023-06-22T02:13:00.966720","CENTER_NAME":"EARTH","SITE":"AFETR","OBJECT_ID":"2020-062T","MEAN_MOTION":"15.06394915","TLE_LINE2":"2 46342  53.0535 148.0710 0001709 109.7275 250.3898 15.06394915155033","FILE":"3939395","ECCENTRICITY":"0.00017090"},{"EPHEMERIS_TYPE":"0","OBJECT_TYPE":"PAYLOAD","ARG_OF_PERICENTER":"87.6580","MEAN_MOTION_DDOT":"0.0000000000000","INCLINATION":"53.0555","BSTAR":"-0.00006734000000","MEAN_ELEMENT_THEORY":"SGP4","RCS_SIZE":"LARGE","OBJECT_ID":"2020-062U","MEAN_MOTION":"15.06391385","SITE":"AFETR","ECCENTRICITY":"0.00013100","FILE":"3940038","TLE_LINE2":"2 46343  53.0555 127.2038 0001310  87.6580 272.4559 15.06391385155340","CENTER_NAME":"EARTH","EPOCH":"2023-06-22T06:51:41.143104","MEAN_ANOMALY":"272.4559","SEMIMAJOR_AXIS":"6925.375","CLASSIFICATION_TYPE":"U","RA_OF_ASC_NODE":"127.2038","PERIOD":"95.593","REF_FRAME":"TEME","DECAY_DATE":null,"TLE_LINE1":"1 46343U 20062U   23173.28589286 -.00001284  00000-0 -67340-4 0  9995","ELEMENT_SET_NO":"999","PERIAPSIS":"546.333","TIME_SYSTEM":"UTC","COUNTRY_CODE":"US","REV_AT_EPOCH":"15534","GP_ID":"234460414","APOAPSIS":"548.147","MEAN_MOTION_DOT":"-0.00001284","OBJECT_NAME":"STARLINK-1764","NORAD_CAT_ID":"46343","LAUNCH_DATE":"2020-09-03"},{"PERIOD":"95.592","RA_OF_ASC_NODE":"125.9271","TLE_LINE1":"1 46344U 20062V   23173.56970043  .00001852  00000-0  14321-3 0  9991","ELEMENT_SET_NO":"999","DECAY_DATE":null,"REF_FRAME":"TEME","CLASSIFICATION_TYPE":"U","SEMIMAJOR_AXIS":"6925.352","LAUNCH_DATE":"2020-09-03","NORAD_CAT_ID":"46344","OBJECT_NAME":"STARLINK-1765","APOAPSIS":"548.297","MEAN_MOTION_DOT":"0.00001852","TIME_SYSTEM":"UTC","COUNTRY_CODE":"US","PERIAPSIS":"546.137","GP_ID":"234460917","REV_AT_EPOCH":"15536","RCS_SIZE":"LARGE","BSTAR":"0.00014321000000","INCLINATION":"53.0542","MEAN_ELEMENT_THEORY":"SGP4","ARG_OF_PERICENTER":"110.0422","MEAN_MOTION_DDOT":"0.0000000000000","OBJECT_TYPE":"PAYLOAD","EPHEMERIS_TYPE":"0","MEAN_ANOMALY":"250.0734","EPOCH":"2023-06-22T13:40:22.117152","CENTER_NAME":"EARTH","SITE":"AFETR","OBJECT_ID":"2020-062V","MEAN_MOTION":"15.06398847","TLE_LINE2":"2 46344  53.0542 125.9271 0001559 110.0422 250.0734 15.06398847155361","FILE":"3940038","ECCENTRICITY":"0.00015590"}];
